CSS (TIANHE)            
1 48274U 21035A   23288.88262137  .00018469  00000+0  21311-3 0  9994
2 48274  41.4701 141.0635 0001820  98.1227 261.9819 15.61483744140705
